NOAA 15                 
1 25338U 98030A   22319.53993136  .00000135  00000+0  74387-4 0  9998
2 25338  98.6307 347.0076 0009823 212.1166 147.9417 14.26196457274555
DMSP 5D-3 F15 (USA 147) 
1 25991U 99067A   22319.56742806  .00000165  00000+0  10560-3 0  9998
2 25991  99.0640 313.8120 0010951 118.0148 352.1718 14.16598458185162
DMSP 5D-3 F16 (USA 172) 
1 28054U 03048A   22319.57121003  .00000127  00000+0  91019-4 0  9993
2 28054  99.0012 311.2517 0006406 248.6708 220.1220 14.13707150984383
NOAA 18                 
1 28654U 05018A   22319.48238959  .00000162  00000+0  11142-3 0  9994
2 28654  98.9349  29.6922 0013301 263.7809  96.1847 14.12807267901308
METEOSAT-9 (MSG-2)      
1 28912U 05049B   22319.46675740  .00000141  00000+0  00000+0 0  9990
2 28912   6.3576  65.2796 0001551 183.2375  19.7519  1.00269215 61901
EWS-G1 (GOES 13)        
1 29155U 06018A   22319.18294872  .00000050  00000+0  00000+0 0  9998
2 29155   0.9559  94.1752 0006906 140.2914 306.9837  1.00271932 30242
DMSP 5D-3 F17 (USA 191) 
1 29522U 06050A   22319.56452995  .00000133  00000+0  92590-4 0  9998
2 29522  98.7632 331.7672 0009775 185.3941 174.7129 14.14137520827269
FENGYUN 3A              
1 32958U 08026A   22319.46196571  .00000120  00000+0  78175-4 0  9993
2 32958  98.5247 276.0671 0007937 312.3098  47.7405 14.18761506749742
FENGYUN 2E              
1 33463U 08066A   22318.82927292 -.00000192  00000+0  00000+0 0  9997
2 33463   6.2388  64.4039 0000946 248.2483 126.2193  1.00280616 50951
NOAA 19                 
1 33591U 09005A   22319.57181936  .00000174  00000+0  11858-3 0  9999
2 33591  99.1316 356.7708 0014721 122.0432 238.2171 14.12638229709780
GOES 14                 
1 35491U 09033A   22319.50859656 -.00000082  00000+0  00000+0 0  9997
2 35491   0.2402 264.5857 0018378 317.2133 271.6787  1.00272851 48978
METEOR-M 1              
1 35865U 09049A   22319.49892729  .00000124  00000+0  74939-4 0  9998
2 35865  98.5503 285.2437 0002994 128.3194 231.8254 14.22378736683018
DMSP 5D-3 F18 (USA 210) 
1 35951U 09057A   22319.52754801  .00000212  00000+0  13530-3 0  9992
2 35951  98.7420 295.3248 0011652  21.7837 338.3829 14.13588442674475
GOES 15                 
1 36411U 10008A   22319.50388965  .00000066  00000+0  00000+0 0  9995
2 36411   0.1987 280.7425 0003537 277.7939 269.1640  1.00276503 46532
COMS 1                  
1 36744U 10032A   22319.55496831 -.00000332  00000+0  00000+0 0  9995
2 36744   1.4608  91.7690 0001058 156.9062 133.9172  1.00271545 37955
FENGYUN 3B              
1 37214U 10059A   22319.53867226  .00000067  00000+0  59052-4 0  9995
2 37214  99.0932 328.2077 0021240 290.0814  69.8075 14.14274726622310
SUOMI NPP               
1 37849U 11061A   22319.54049417  .00000105  00000+0  70578-4 0  9997
2 37849  98.7464 256.0700 0001024  88.8605  21.3972 14.19561069572632
FENGYUN 2F              
1 38049U 12002A   22319.33653296 -.00000345  00000+0  00000+0 0  9994
2 38049   4.1586  78.5048 0002434 266.4368 302.8361  1.00279329 39749
METEOSAT-10 (MSG-3)     
1 38552U 12035B   22319.60308306  .00000075  00000+0  00000+0 0  9997
2 38552   1.7667  48.6988 0001745 148.9243  83.7766  1.00269330 38083
METOP-B                 
1 38771U 12049A   22319.55410376  .00000110  00000+0  70120-4 0  9995
2 38771  98.7110  17.1598 0000606  59.9033  77.5851 14.21494060527206
FENGYUN 3C              
1 39260U 13052A   22319.56266847  .00000122  00000+0  82869-4 0  9993
2 39260  98.4436 339.9524 0010735 193.7532 166.3344 14.15959647473302
METEOR-M 2              
1 40069U 14037A   22319.53000847  .00000024  00000+0  30116-4 0  9998
2 40069  98.4282 330.4189 0004663 238.6808 121.3912 14.20726452433312
HIMAWARI-8              
1 40267U 14060A   22319.34228584 -.00000264  00000+0  00000+0 0  9994
2 40267   0.0353 128.6346 0001521 141.4840  48.1954  1.00269348 29626
FENGYUN 2G              
1 40367U 14090A   22319.47747868 -.00000289  00000+0  00000+0 0  9990
2 40367   2.3101  87.8853 0001937 212.8783  25.1102  1.00277472 28864
METEOSAT-11 (MSG-4)     
1 40732U 15034A   22319.24256951  .00000007  00000+0  00000+0 0  9995
2 40732   0.4966 345.7329 0001071 140.0586  16.0707  1.00266934 26885
ELEKTRO-L 2             
1 41105U 15074A   22319.60094060 -.00000102  00000+0  00000+0 0  9992
2 41105   3.3651  86.3234 0003045 141.2953  28.9585  1.00271586 25389
HIMAWARI-9              
1 41836U 16064A   22319.62923251 -.00000262  00000+0  00000+0 0  9995
2 41836   0.0408 119.7067 0001204 117.2281 185.0680  1.00272634 22171
GOES 16                 
1 41866U 16071A   22319.51443662 -.00000236  00000+0  00000+0 0  9998
2 41866   0.0475 267.7076 0000941   8.1623 248.7435  1.00272613 21987
FENGYUN 4A              
1 41882U 16077A   22319.55026141 -.00000319  00000+0  00000+0 0  9997
2 41882   0.1043 292.7216 0005196 100.2677 324.3262  1.00276567 21847
CYGFM05                 
1 41884U 16078A   22319.44116999  .00003861  00000+0  19030-3 0  9990
2 41884  34.9573 340.9066 0014164   1.6245 358.4512 15.17321381327721
CYGFM04                 
1 41885U 16078B   22319.43936187  .00003606  00000+0  17515-3 0  9992
2 41885  34.9503 329.2904 0012350  20.1762 339.9437 15.17872518327779
CYGFM02                 
1 41886U 16078C   22319.36058731  .00003981  00000+0  19295-3 0  9998
2 41886  34.9595 332.0406 0013131  13.0735 347.0316 15.17912307327844
CYGFM01                 
1 41887U 16078D   22319.33096591  .00003853  00000+0  19097-3 0  9990
2 41887  34.9541 344.2303 0014601 359.9044   0.1664 15.17121211327653
CYGFM08                 
1 41888U 16078E   22319.46545084  .00003548  00000+0  17360-3 0  9993
2 41888  34.9510 335.3196 0013643  13.8329 346.2755 15.17612276327817
CYGFM06                 
1 41889U 16078F   22319.40513320  .00003974  00000+0  19257-3 0  9996
2 41889  34.9586 330.4148 0012134  12.9937 347.1086 15.17927736327922
CYGFM07                 
1 41890U 16078G   22319.39628231  .00003798  00000+0  18452-3 0  9994
2 41890  34.9525 329.3343 0011918  17.6473 342.4651 15.17855675327778
CYGFM03                 
1 41891U 16078H   22319.32911093  .00003777  00000+0  18350-3 0  9993
2 41891  34.9557 330.2628 0011457  14.6435 345.4607 15.17858542327752
FENGYUN 3D              
1 43010U 17072A   22319.50736737  .00000125  00000+0  81201-4 0  9993
2 43010  98.8326 263.4577 0001278 157.4508 202.6715 14.19111267259190
NOAA 20                 
1 43013U 17073A   22319.62395631  .00000082  00000+0  59651-4 0  9990
2 43013  98.7303 255.8843 0001125  55.5352 304.5930 14.19559466258674
GOES 17                 
1 43226U 18022A   22319.51675029  .00000110  00000+0  00000+0 0  9992
2 43226   0.0176 263.2824 0000559 349.8690 210.1469  1.00272258 17297
FENGYUN 2H              
1 43491U 18050A   22319.47346910 -.00000114  00000+0  00000+0 0  9991
2 43491   1.5272  94.2891 0003311  77.4957 132.2507  1.00270283 16303
METOP-C                 
1 43689U 18087A   22319.56390897  .00000103  00000+0  67181-4 0  9998
2 43689  98.7156  17.1974 0002518 337.2019  22.9047 14.21487634208776
GEO-KOMPSAT-2A          
1 43823U 18100A   22318.98114169 -.00000333  00000+0  00000+0 0  9993
2 43823   0.0561  95.3220 0000562  65.5026  14.7313  1.00270898 14483
METEOR-M2 2             
1 44387U 19038A   22319.53130096  .00000043  00000+0  38391-4 0  9995
2 44387  98.7441 279.2403 0001321 148.5469 211.5779 14.23730468174903
FENGYUN 3E              
1 49008U 21062A   22319.54116360  .00000033  00000+0  36328-4 0  9996
2 49008  98.7169 319.1588 0000696 282.2669  77.8449 14.19745986 70756
GOES 18                 
1 51850U 22021A   22319.34803969  .00000108  00000+0  00000+0 0  9992
2 51850   0.0329 100.5940 0002133 139.2111 163.0043  1.00271305  2649
JPSS-2                  
1 54234U 22150A   22319.44381844 -.00000292  00000+0 -10714-3 0  9991
2 54234  98.6974 255.7784 0023332 224.9651 134.9606 14.24361819   719
